{
    "links": {
        "self": "http://www.neowsapp.com/rest/v1/neo/3827159?api_key=iIulBulltgU6a56xZRHN4H3l9WmuAYTsLGpBGhQ2"
    },
    "id": "3827159",
    "neo_reference_id": "3827159",
    "name": "(2018 RN)",
    "designation": "2018 RN",
    "nasa_jpl_url": "http://ssd.jpl.nasa.gov/sbdb.cgi?sstr=3827159",
    "absolute_magnitude_h": 24.1,
    "estimated_diameter": {
        "kilometers": {
            "estimated_diameter_min": 0.040230458,
            "estimated_diameter_max": 0.0899580388
        },
        "meters": {
            "estimated_diameter_min": 40.2304579834,
            "estimated_diameter_max": 89.9580388169
        },
        "miles": {
            "estimated_diameter_min": 0.0249980399,
            "estimated_diameter_max": 0.0558973165
        },
        "feet": {
            "estimated_diameter_min": 131.9896957704,
            "estimated_diameter_max": 295.1379320721
        }
    },
    "is_potentially_hazardous_asteroid": false,
    "close_approach_data": [
        {
            "close_approach_date": "2018-09-03",
            "close_approach_date_full": "2018-Sep-03 01:00",
            "epoch_date_close_approach": 1535936400000,
            "relative_velocity": {
                "kilometers_per_second": "9.7765061626",
                "kilometers_per_hour": "35195.4221855349",
                "miles_per_hour": "21869.0666352286"
            },
            "miss_distance": {
                "astronomical": "0.0320819597",
                "lunar": "12.4798823233",
                "kilometers": "4799392.836545839",
                "miles": "2982204.4219730182"
            },
            "orbiting_body": "Earth"
        }
    ],
    "orbital_data": {
        "orbit_id": "2",
        "orbit_determination_date": "2018-09-18 07:15:45",
        "first_observation_date": "2018-09-04",
        "last_observation_date": "2018-09-15",
        "data_arc_in_days": 11,
        "observations_used": 32,
        "orbit_uncertainty": "8",
        "minimum_orbit_intersection": ".00314884",
        "jupiter_tisserand_invariant": "3.100",
        "epoch_osculation": "2458375.5",
        "eccentricity": ".6152166100816574",
        "semi_major_axis": "2.61228150952491",
        "inclination": "7.394561933547152",
        "ascending_node_longitude": "349.9130649202194",
        "orbital_period": "1542.156296607389",
        "perihelion_distance": "1.005162534656",
        "perihelion_argument": "8.753468625990257",
        "aphelion_distance": "4.21940048439382",
        "perihelion_time": "2458378.608515223783",
        "mean_anomaly": "359.2743501530787",
        "mean_motion": ".2334393736821417",
        "equinox": "J2000",
        "orbit_class": {
            "orbit_class_type": "APO",
            "orbit_class_description": "Near-Earth asteroid orbits which cross the Earth’s orbit similar to that of 1862 Apollo",
            "orbit_class_range": "a (semi-major axis) > 1.0 AU; q (perihelion) < 1.017 AU"
        }
    },
    "is_sentry_object": false
}